H1 CPF 01  gfz 2021 07 13 12  6942 tandemx   
H2 1003001  6202 36605    2021 07 13 12 59 42 2021 07 18 00 00 42   120 1 1  0 0 0
H9
10 0 59409  76302.000000  0   -4279187.735   3975978.268   3642576.528
10 0 59409  76422.000000  0   -4458318.443   4407058.105   2847530.190
10 0 59409  76542.000000  0   -4552597.942   4763465.691   2002333.822
10 0 59409  76662.000000  0   -4561751.512   5037480.906   1121871.615
10 0 59409  76782.000000  0   -4487128.826   5222848.775    221652.771
10 0 59409  76902.000000  0   -4331655.138   5314920.338   -682468.873
10 0 59409  77022.000000  0   -4099749.596   5310762.784  -1574584.635
10 0 59409  77142.000000  0   -3797211.207   5209231.079  -2439020.637
10 0 59409  77262.000000  0   -3431079.199   5011005.685  -3260619.546
10 0 59409  77382.000000  0   -3009469.827   4718591.405  -4025010.891
10 0 59409  77502.000000  0   -2541395.133   4336279.749  -4718861.401
10 0 59409  77622.000000  0   -2036568.692   3870077.844  -5330102.000
10 0 59409  77742.000000  0   -1505203.829   3327607.014  -5848129.882
10 0 59409  77862.000000  0    -957807.158   2717970.838  -6263983.704
10 0 59409  77982.000000  0    -404971.931   2051596.211  -6570487.354
10 0 59409  78102.000000  0     142823.755   1340052.767  -6762361.902
10 0 59409  78222.000000  0     675410.432    595852.916  -6836307.338
10 0 59409  78342.000000  0    1183111.876   -167764.330  -6791053.990
10 0 59409  78462.000000  0    1656916.887   -937064.537  -6627380.982
10 0 59409  78582.000000  0    2088634.794  -1698058.340  -6348103.299
10 0 59409  78702.000000  0    2471034.840  -2436749.120  -5958028.989
10 0 59409  78822.000000  0    2797966.801  -3139385.236  -5463886.496
10 0 59409  78942.000000  0    3064462.388  -3792716.076  -4874220.373
10 0 59409  79062.000000  0    3266812.972  -4384243.250  -4199252.342
10 0 59409  79182.000000  0    3402622.405  -4902461.607  -3450714.609
10 0 59409  79302.000000  0    3470836.295  -5337089.459  -2641656.119
10 0 59409  79422.000000  0    3471744.383  -5679281.783  -1786219.831
10 0 59409  79542.000000  0    3406955.663  -5921817.952   -899396.396
10 0 59409  79662.000000  0    3279346.554  -6059261.555      3241.625
10 0 59409  79782.000000  0    3092981.351  -6088085.161    905819.796
10 0 59409  79902.000000  0    2853008.946  -6006758.638   1792448.332
10 0 59409  80022.000000  0    2565537.335  -5815796.656   2647512.488
10 0 59409  80142.000000  0    2237487.860  -5517763.225   3455955.776
10 0 59409  80262.000000  0    1876435.021  -5117235.946   4203550.408
10 0 59409  80382.000000  0    1490435.596  -4620730.881   4877151.699
10 0 59409  80502.000000  0    1087852.004  -4036589.140   5464930.275
10 0 59409  80622.000000  0     677172.292  -3374828.017   5956579.670
10 0 59409  80742.000000  0     266831.610  -2646959.537   6343491.686
10 0 59409  80862.000000  0    -134959.576  -1865784.031   6618900.007
10 0 59409  80982.000000  0    -520377.792  -1045161.865   6777992.150
10 0 59409  81102.000000  0    -882137.517   -199765.944   6817989.738
10 0 59409  81222.000000  0   -1213627.906    655181.658   6738194.190
10 0 59409  81342.000000  0   -1509033.158   1504183.488   6539997.757
10 0 59409  81462.000000  0   -1763434.457   2331746.755   6226860.704
10 0 59409  81582.000000  0   -1972892.542   3122665.988   5804254.695
10 0 59409  81702.000000  0   -2134508.971   3862303.695   5279572.305
10 0 59409  81822.000000  0   -2246465.802   4536864.851   4662004.814
10 0 59409  81942.000000  0   -2308042.905   5133660.849   3962386.781
10 0 59409  82062.000000  0   -2319611.881   5641356.477   3193009.548
10 0 59409  82182.000000  0   -2282606.666   6050193.693   2367405.634
10 0 59409  82302.000000  0   -2199471.352   6352187.398   1500109.066
10 0 59409  82422.000000  0   -2073585.909   6541288.696    606394.889
10 0 59409  82542.000000  0   -1909171.805   6613510.860   -297996.557
10 0 59409  82662.000000  0   -1711180.247   6567015.125  -1197145.318
10 0 59409  82782.000000  0   -1485164.904   6402153.138  -2075243.635
10 0 59409  82902.000000  0   -1237142.092   6121460.163  -2916883.024
10 0 59409  83022.000000  0    -973444.263   5729605.966  -3707327.437
10 0 59409  83142.000000  0    -700570.155   5233306.705  -4432771.841
10 0 59409  83262.000000  0    -425035.042   4641197.437  -5080580.833
10 0 59409  83382.000000  0    -153224.116   3963670.973  -5639502.572
10 0 59409  83502.000000  0     108747.857   3212685.705  -6099856.356
10 0 59409  83622.000000  0     355167.033   2401546.415  -6453689.555
10 0 59409  83742.000000  0     580838.271   1544665.129  -6694902.790
10 0 59409  83862.000000  0     781189.400    657306.018  -6819345.310
10 0 59409  83982.000000  0     952359.637   -244683.091  -6824878.658
10 0 59409  84102.000000  0    1091271.077  -1145148.498  -6711408.977
10 0 59409  84222.000000  0    1195682.253  -2027912.403  -6480886.684
10 0 59409  84342.000000  0    1264223.765  -2877055.073  -6137277.079
10 0 59409  84462.000000  0    1296415.799  -3677197.072  -5686501.686
10 0 59409  84582.000000  0    1292665.344  -4413777.676  -5136346.165
10 0 59409  84702.000000  0    1254245.202  -5073320.801  -4496335.998
10 0 59409  84822.000000  0    1183254.008  -5643686.899  -3777583.547
10 0 59409  84942.000000  0    1082557.023  -6114305.745  -2992604.160
10 0 59409  85062.000000  0     955709.848  -6476383.326  -2155104.717
10 0 59409  85182.000000  0     806866.376  -6723078.947  -1279747.219
10 0 59409  85302.000000  0     640672.005  -6849646.545   -381890.502
10 0 59409  85422.000000  0     462145.091  -6853535.280    522684.022
10 0 59409  85542.000000  0     276549.722  -6734447.654   1418056.401
10 0 59409  85662.000000  0      89262.899  -6494353.129   2288457.231
10 0 59409  85782.000000  0     -94360.481  -6137455.218   3118555.639
10 0 59409  85902.000000  0    -269121.360  -5670111.273   3893737.897
10 0 59409  86022.000000  0    -430105.815  -5100710.402   4600368.210
10 0 59409  86142.000000  0    -572806.076  -4439513.817   5226030.908
10 0 59409  86262.000000  0    -693230.308  -3698460.050   5759747.880
10 0 59409  86382.000000  0    -787999.252  -2890939.415   6192169.077
10 0 59410    102.000000  0    -854427.306  -2031542.975   6515729.643
10 0 59410    222.000000  0    -890586.631  -1135795.124   6724774.687
10 0 59410    342.000000  0    -895353.841   -219871.413   6815653.584
10 0 59410    462.000000  0    -868438.546    699694.595   6786780.192
10 0 59410    582.000000  0    -810391.712   1606309.551   6638658.856
10 0 59410    702.000000  0    -722594.240   2483619.251   6373875.982
10 0 59410    822.000000  0    -607226.572   3315803.456   5997057.699
10 0 59410    942.000000  0    -467219.952   4087862.888   5514793.946
10 0 59410   1062.000000  0    -306189.691   4785892.920   4935528.592
10 0 59410   1182.000000  0    -128351.664   5397340.784   4269418.400
10 0 59410   1302.000000  0      61576.866   5911239.604   3528157.554
10 0 59410   1422.000000  0     258488.605   6318412.618   2724777.780
10 0 59410   1542.000000  0     457008.961   6611652.966   1873418.997
10 0 59410   1662.000000  0     651628.025   6785858.558    989073.353
10 0 59410   1782.000000  0     836836.497   6838126.104     87315.155
10 0 59410   1902.000000  0    1007263.482   6767801.868   -815981.528
10 0 59410   2022.000000  0    1157811.047   6576486.551  -1704931.049
10 0 59410   2142.000000  0    1283782.527   6267995.728  -2563922.915
10 0 59410   2262.000000  0    1381001.982   5848276.729  -3377901.980
10 0 59410   2382.000000  0    1445921.972   5325283.780  -4132635.788
10 0 59410   2502.000000  0    1475717.111   4708815.182  -4814963.390
10 0 59410   2622.000000  0    1468361.006   4010317.283  -5413020.190
10 0 59410   2742.000000  0    1422685.032   3242662.327  -5916436.156
10 0 59410   2862.000000  0    1338418.173   2419903.601  -6316506.109
10 0 59410   2982.000000  0    1216206.963   1557013.953  -6606327.879
10 0 59410   3102.000000  0    1057616.411    669614.467  -6780910.576
10 0 59410   3222.000000  0     865111.282   -226305.167  -6837252.163
10 0 59410   3342.000000  0     642018.110  -1114669.594  -6774384.733
10 0 59410   3462.000000  0     392468.569  -1979598.843  -6593387.690
10 0 59410   3582.000000  0     121325.831  -2805683.553  -6297371.725
10 0 59410   3702.000000  0    -165906.909  -3578255.183  -5891433.291
10 0 59410   3822.000000  0    -463193.475  -4283644.652  -5382574.981
10 0 59410   3942.000000  0    -764085.297  -4909425.163  -4779596.141
10 0 59410   4062.000000  0   -1061855.036  -5444636.754  -4092952.448
10 0 59410   4182.000000  0   -1349640.561  -5879987.165  -3334584.702
10 0 59410   4302.000000  0   -1620595.963  -6208024.029  -2517718.893
10 0 59410   4422.000000  0   -1868046.627  -6423274.893  -1656640.461
10 0 59410   4542.000000  0   -2085644.646  -6522351.106   -766444.911
10 0 59410   4662.000000  0   -2267520.547  -6504011.287    137230.586
10 0 59410   4782.000000  0   -2408427.716  -6369181.614   1038488.636
10 0 59410   4902.000000  0   -2503875.353  -6120932.290   1921459.781
10 0 59410   5022.000000  0   -2550246.381  -5764410.475   2770591.244
10 0 59410   5142.000000  0   -2544896.902  -5306731.166   3570929.323
10 0 59410   5262.000000  0   -2486234.628  -4756829.354   4308388.821
10 0 59410   5382.000000  0   -2373775.074  -4125278.182   4970004.100
10 0 59410   5502.000000  0   -2208174.837  -3424077.501   5544158.237
10 0 59410   5622.000000  0   -1991239.814  -2666416.429   6020784.917
10 0 59410   5742.000000  0   -1725908.621  -1866418.728   6391539.692
10 0 59410   5862.000000  0   -1416212.531  -1038875.486   6649940.905
10 0 59410   5982.000000  0   -1067213.225   -198967.705   6791476.818
10 0 59410   6102.000000  0    -684920.105    638012.470   6813677.897
10 0 59410   6222.000000  0    -276186.928   1456939.165   6716158.079
10 0 59410   6342.000000  0     151411.143   2243125.980   6500621.280
99
